GLOBALSTAR M045 [-]     
1 25676U 99019A   24093.84532367 -.00000095  00000+0 -13336-4 0  9995
2 25676  51.9947 120.3063 0000647  93.3454  75.8060 12.27034340139334
GLOBALSTAR M019 [-]     
1 25677U 99019B   24093.74882292 -.00000047  00000+0  45069-3 0  9993
2 25677  51.9872 219.9612 0001739 138.0002  10.3712 12.13855226131650
GLOBALSTAR M044 [-]     
1 25678U 99019C   24093.82181287 -.00000076  00000+0  10823-3 0  9991
2 25678  51.9944 116.0272 0006127 269.4615 261.4291 11.90230237118889
GLOBALSTAR M042 [-]     
1 25679U 99019D   24093.61234718 -.00000067  00000+0  23409-3 0  9991
2 25679  52.0002 214.6814 0003699 112.6439 260.5281 12.22058853131396
GLOBALSTAR M025 [-]     
1 25770U 99031A   24093.96376553 -.00000065  00000+0  63410-4 0  9994
2 25770  51.9790  99.0715 0001498 134.9663 236.5174 11.22549894432270
GLOBALSTAR M049 [-]     
1 25771U 99031B   24093.74681383 -.00000025  00000+0  14012-2 0  9999
2 25771  51.9845 112.2047 0002731 356.6138   3.4639 11.12104127 68423
GLOBALSTAR M047 [-]     
1 25772U 99031C   24093.84593375 -.00000077  00000+0 -20094-3 0  9990
2 25772  51.9811 151.0201 0016579 225.5157 134.4294 11.31919721421240
GLOBALSTAR M052 [-]     
1 25773U 99031D   24093.61228037 -.00000030  00000+0  12127-2 0  9991
2 25773  51.9853 227.3809 0003291 154.5854 218.2770 11.15050264429361
